ONEWEB-0056             
1 45159U 20008AE  25186.78236655 -.00000018  00000+0 -86534-4 0  9998
2 45159  87.8823 105.3469 0001884  76.1941 283.9396 13.10372877262817
ONEWEB-0057             
1 45160U 20008AF  25186.78983277 -.00000415  00000+0 -12265-2 0  9998
2 45160  87.8826 105.3586 0001763  78.4082 281.7243 13.10369699262982
ONEWEB-0058             
1 45161U 20008AG  25186.77670402  .00000262  00000+0  71372-3 0  9994
2 45161  87.8820 105.3735 0002084  79.6881 280.4482 13.10369681263051
ONEWEB-0059             
1 45162U 20008AH  25186.84960881  .00000505  00000+0  14108-2 0  9999
2 45162  87.8824 105.3568 0002088  78.7078 281.4283 13.10371259262965
ONEWEB-0062             
1 45163U 20008AJ  25187.18074613 -.00000590  00000+0 -17268-2 0  9993
2 45163  87.8825 105.2710 0002234  72.8577 287.2795 13.10371756263625
ONEWEB-0065             
1 45164U 20008AK  25186.85457914  .00000288  00000+0  78829-3 0  9999
2 45164  87.8828 105.3592 0001624  73.2486 286.8819 13.10369561262525
ONEWEB-0066             
1 45424U 20020A   25186.75934111 -.00000578  00000+0 -16654-2 0  9991
2 45424  87.8835  90.1128 0001962  88.8126 271.3227 13.11417128257278
ONEWEB-0067             
1 45425U 20020B   25186.79679811  .00000488  00000+0  13416-2 0  9990
2 45425  87.8824  90.0194 0001803  83.3889 276.7444 13.11417162257334
